IRIDIUM 126             
1 42809U 17039G   25343.51781052  .00000587  00000+0  20248-3 0  9997
2 42809  86.3969  72.9328 0001860  97.3296 262.8111 14.34216967442765
IRIDIUM 124             
1 42810U 17039H   25343.15522320  .00000649  00000+0  18677-3 0  9992
2 42810  86.4494   9.8064 0002192  98.1754 261.9695 14.43287502447703
IRIDIUM 128             
1 42811U 17039J   25343.43878157  .00000699  00000+0  24243-3 0  9997
2 42811  86.3962 104.4992 0002298 101.1284 259.0170 14.34216879442783
IRIDIUM 121             
1 42812U 17039K   25343.32753513  .00000413  00000+0  14026-3 0  9996
2 42812  86.3969  73.0386 0002188  95.9990 264.1456 14.34218364442618
IRIDIUM 133             
1 42955U 17061A   25343.40073222  .00000376  00000+0  12704-3 0  9999
2 42955  86.3965 104.6283 0002042  97.4331 262.7097 14.34213463427572
IRIDIUM 100             
1 42956U 17061B   25343.39437436  .00000579  00000+0  19983-3 0  9990
2 42956  86.3965 104.5556 0001975  92.2700 267.8722 14.34217724427577
IRIDIUM 122             
1 42957U 17061C   25343.43243875  .00000002  00000+0 -62965-5 0  9990
2 42957  86.3964 104.5379 0001821  97.7574 262.3828 14.34217215427582
IRIDIUM 129             
1 42958U 17061D   25343.38803896  .00001050  00000+0  36794-3 0  9992
2 42958  86.3962 104.6212 0001867  83.9502 276.1906 14.34216751427591
